GLOBALSTAR M035         
1 25851U 99037A   24356.56758259 -.00000045  00000+0  71378-3 0  9994
2 25851  51.9955  91.0721 0013977  58.2805  19.5417 11.04535415 76630
GLOBALSTAR M030         
1 25854U 99037D   24356.25496561 -.00000072  00000+0  60822-4 0  9991
2 25854  51.9890 287.5515 0004194  83.4386 276.6908 11.55100785129486
GLOBALSTAR M048         
1 25872U 99041A   24356.40565670 -.00000059  00000+0  29645-3 0  9993
2 25872  51.9394  37.9278 0013340 235.2147 245.9899 11.33852569104811
GLOBALSTAR M026         
1 25873U 99041B   24355.98643103 -.00000009  00000+0  20162-2 0  9993
2 25873  51.9975 212.2035 0001341   7.1391 137.5079 11.06824955128754
GLOBALSTAR M043         
1 25874U 99041C   24356.39796799 -.00000056  00000+0  35643-3 0  9993
2 25874  51.9375 138.5043 0013013  13.5307  12.9479 11.25688864102856
GLOBALSTAR M028         
1 25875U 99041D   24356.40119809 -.00000018  00000+0  53803-3 0  9993
2 25875  51.9644   3.1889 0063466  45.4881 315.1143 12.50572842167932
